{
    "links": {
        "self": "http://www.neowsapp.com/rest/v1/neo/3771027?api_key=iIulBulltgU6a56xZRHN4H3l9WmuAYTsLGpBGhQ2"
    },
    "id": "3771027",
    "neo_reference_id": "3771027",
    "name": "(2017 EH3)",
    "designation": "2017 EH3",
    "nasa_jpl_url": "http://ssd.jpl.nasa.gov/sbdb.cgi?sstr=3771027",
    "absolute_magnitude_h": 25.8,
    "estimated_diameter": {
        "kilometers": {
            "estimated_diameter_min": 0.0183888672,
            "estimated_diameter_max": 0.0411187571
        },
        "meters": {
            "estimated_diameter_min": 18.388867207,
            "estimated_diameter_max": 41.1187571041
        },
        "miles": {
            "estimated_diameter_min": 0.0114263088,
            "estimated_diameter_max": 0.0255500032
        },
        "feet": {
            "estimated_diameter_min": 60.3309310875,
            "estimated_diameter_max": 134.9040630575
        }
    },
    "is_potentially_hazardous_asteroid": false,
    "close_approach_data": [
        {
            "close_approach_date": "2017-03-10",
            "close_approach_date_full": "2017-Mar-10 05:44",
            "epoch_date_close_approach": 1489124640000,
            "relative_velocity": {
                "kilometers_per_second": "9.0553922065",
                "kilometers_per_hour": "32599.4119434676",
                "miles_per_hour": "20256.0068267619"
            },
            "miss_distance": {
                "astronomical": "0.0398895552",
                "lunar": "15.5170369728",
                "kilometers": "5967392.493167424",
                "miles": "3707965.7545974912"
            },
            "orbiting_body": "Earth"
        }
    ],
    "orbital_data": {
        "orbit_id": "3",
        "orbit_determination_date": "2017-04-06 08:19:37",
        "first_observation_date": "2017-02-27",
        "last_observation_date": "2017-03-13",
        "data_arc_in_days": 14,
        "observations_used": 33,
        "orbit_uncertainty": "7",
        "minimum_orbit_intersection": ".0401998",
        "jupiter_tisserand_invariant": "3.761",
        "epoch_osculation": "2459000.5",
        "eccentricity": ".4727527093608477",
        "semi_major_axis": "1.92023923738266",
        "inclination": "10.96814793818507",
        "ascending_node_longitude": "162.8894974711424",
        "orbital_period": "971.9220528094179",
        "perihelion_distance": "1.012440935289",
        "perihelion_argument": "23.64249341449694",
        "aphelion_distance": "2.828037539476321",
        "perihelion_time": "2458809.148652392972",
        "mean_anomaly": "70.87655325795767",
        "mean_motion": ".3704000737089887",
        "equinox": "J2000",
        "orbit_class": {
            "orbit_class_type": "APO",
            "orbit_class_description": "Near-Earth asteroid orbits which cross the Earth’s orbit similar to that of 1862 Apollo",
            "orbit_class_range": "a (semi-major axis) > 1.0 AU; q (perihelion) < 1.017 AU"
        }
    },
    "is_sentry_object": false
}